CCSDS_OMM_VERS = 2.0
CREATION_DATE  = 
ORIGINATOR     = 

OBJECT_NAME    = LPNTSAT-002 (IOD-2)
OBJECT_ID      = 2026-065B
CENTER_NAME    = EARTH
REF_FRAME      = TEME
TIME_SYSTEM    = UTC
MEAN_ELEMENT_THEORY = SGP/SGP4

EPOCH          = 2026-03-30T22:01:49.710144
MEAN_MOTION    = 15.18186279
ECCENTRICITY   = .0012511
INCLINATION    = 97.4122
RA_OF_ASC_NODE = 332.0512
ARG_OF_PERICENTER = 274.1697
MEAN_ANOMALY   = 85.8107

EPHEMERIS_TYPE = 0
CLASSIFICATION_TYPE = U
NORAD_CAT_ID   = 68409
ELEMENT_SET_NO = 999
REV_AT_EPOCH   = 36
BSTAR          = .84452E-4
MEAN_MOTION_DOT = .1661E-4
MEAN_MOTION_DDOT = 0

CCSDS_OMM_VERS = 2.0
CREATION_DATE  = 
ORIGINATOR     = 

OBJECT_NAME    = ELECTRON R/B
OBJECT_ID      = 2026-065C
CENTER_NAME    = EARTH
REF_FRAME      = TEME
TIME_SYSTEM    = UTC
MEAN_ELEMENT_THEORY = SGP/SGP4

EPOCH          = 2026-03-29T17:50:42.810720
MEAN_MOTION    = 15.83047135
ECCENTRICITY   = .02280831
INCLINATION    = 97.3942
RA_OF_ASC_NODE = 331.0573
ARG_OF_PERICENTER = 205.9229
MEAN_ANOMALY   = 153.0475

EPHEMERIS_TYPE = 0
CLASSIFICATION_TYPE = U
NORAD_CAT_ID   = 68410
ELEMENT_SET_NO = 999
REV_AT_EPOCH   = 15
BSTAR          = .25022275E-3
MEAN_MOTION_DOT = .479178E-2
MEAN_MOTION_DDOT = .2264235E-5

CCSDS_OMM_VERS = 2.0
CREATION_DATE  = 
ORIGINATOR     = 

OBJECT_NAME    = ELECTRON KICK STAGE R/B
OBJECT_ID      = 2026-065D
CENTER_NAME    = EARTH
REF_FRAME      = TEME
TIME_SYSTEM    = UTC
MEAN_ELEMENT_THEORY = SGP/SGP4

EPOCH          = 2026-03-30T16:54:54.803808
MEAN_MOTION    = 15.75328689
ECCENTRICITY   = .02045106
INCLINATION    = 97.4169
RA_OF_ASC_NODE = 332.0388
ARG_OF_PERICENTER = 25.2779
MEAN_ANOMALY   = 335.8323

EPHEMERIS_TYPE = 0
CLASSIFICATION_TYPE = U
NORAD_CAT_ID   = 68411
ELEMENT_SET_NO = 999
REV_AT_EPOCH   = 37
BSTAR          = .32519468E-3
MEAN_MOTION_DOT = .204615E-2
MEAN_MOTION_DDOT = .215409E-5

CCSDS_OMM_VERS = 2.0
CREATION_DATE  = 
ORIGINATOR     = 

OBJECT_NAME    = 2026-066A
OBJECT_ID      = 2026-066A
CENTER_NAME    = EARTH
REF_FRAME      = TEME
TIME_SYSTEM    = UTC
MEAN_ELEMENT_THEORY = SGP/SGP4

EPOCH          = 2026-03-31T20:39:16.914816
MEAN_MOTION    = 15.29824820
ECCENTRICITY   = .02060898
INCLINATION    = 84.9606
RA_OF_ASC_NODE = 276.9718
ARG_OF_PERICENTER = 144.2419
MEAN_ANOMALY   = 217.2835

EPHEMERIS_TYPE = 0
CLASSIFICATION_TYPE = U
NORAD_CAT_ID   = 68412
ELEMENT_SET_NO = 999
REV_AT_EPOCH   = 22
BSTAR          = .49493725E-3
MEAN_MOTION_DOT = .2782E-3
MEAN_MOTION_DDOT = 0

CCSDS_OMM_VERS = 2.0
CREATION_DATE  = 
ORIGINATOR     = 

OBJECT_NAME    = 2026-066B
OBJECT_ID      = 2026-066B
CENTER_NAME    = EARTH
REF_FRAME      = TEME
TIME_SYSTEM    = UTC
MEAN_ELEMENT_THEORY = SGP/SGP4

EPOCH          = 2026-03-31T18:24:33.055200
MEAN_MOTION    = 15.04815352
ECCENTRICITY   = .06052317
INCLINATION    = 84.7161
RA_OF_ASC_NODE = 277.0200
ARG_OF_PERICENTER = 206.6432
MEAN_ANOMALY   = 150.2503

EPHEMERIS_TYPE = 0
CLASSIFICATION_TYPE = U
NORAD_CAT_ID   = 68413
ELEMENT_SET_NO = 999
REV_AT_EPOCH   = 20
BSTAR          = .21174642E-3
MEAN_MOTION_DOT = .2524605E-1
MEAN_MOTION_DDOT = -.1158743E-5

