LPNTSAT-002 (IOD-2)     
1 68409U 26065B   26089.91793646  .00001661  00000+0  84452-4 0  9996
2 68409  97.4122 332.0512 0012511 274.1697  85.8107 15.18186279   362
ELECTRON R/B            
1 68410U 26065C   26088.74355105  .00479178  22642-5  25022-3 0  9993
2 68410  97.3942 331.0573 0228083 205.9229 153.0475 15.83047135   157
ELECTRON KICK STAGE R/B 
1 68411U 26065D   26089.70480097  .00204615  21541-5  32519-3 0  9998
2 68411  97.4169 332.0388 0204510  25.2779 335.8323 15.75328689   370
2026-066A               
1 68412U 26066A   26090.86061244  .00027820  00000+0  49494-3 0  9990
2 68412  84.9606 276.9718 0206089 144.2419 217.2835 15.29824820   229
2026-066B               
1 68413U 26066B   26090.76704925  .02524605 -11587-5  21175-3 0  9990
2 68413  84.7161 277.0200 0605231 206.6432 150.2503 15.04815352   201
